GLOBALSTAR M068         
1 32266U 07048D   25085.58792648 -.00000099  00000+0  26288-4 0  9995
2 32266  51.9876 194.0461 0000324 341.2509  32.3097 12.62817896807127
GLOBALSTAR M079         
1 37188U 10054A   25085.61211169 -.00000090  00000+0  76052-4 0  9997
2 37188  52.0059  31.1558 0000762  85.5904  85.1995 12.62272033666024
GLOBALSTAR M074         
1 37189U 10054B   25085.55976896 -.00000101  00000+0  15241-4 0  9992
2 37189  52.0036  30.6521 0000370  88.8794  82.6166 12.62267385666624
GLOBALSTAR M076         
1 37190U 10054C   25085.58529537 -.00000088  00000+0  85386-4 0  9994
2 37190  52.0053  30.7331 0000611 104.7968  65.8570 12.62260027666341
GLOBALSTAR M077         
1 37191U 10054D   25085.49361505 -.00000063  00000+0  22735-3 0  9995
2 37191  52.0099 347.8519 0000673  80.7832  90.6332 12.62272267666704
GLOBALSTAR M075         
1 37192U 10054E   25085.43853331 -.00000091  00000+0  70771-4 0  9998
2 37192  51.9944  73.4843 0000325  90.0882  72.3295 12.62262679665392
GLOBALSTAR M073         
1 37193U 10054F   25085.44111161 -.00000084  00000+0  11191-3 0  9990
2 37193  52.0088 347.2387 0000734  89.2101  82.8779 12.62269335667387
GLOBALSTAR M083         
1 37739U 11033A   25085.29563756 -.00000050  00000+0  29961-3 0  9995
2 37739  51.9860 296.5252 0000928  83.5249  88.5137 12.62261356636383
GLOBALSTAR M088         
1 37740U 11033B   25085.48600521 -.00000107  00000+0 -20404-4 0  9998
2 37740  51.9724 201.5025 0000703 107.0538 331.1322 12.62264586631951
GLOBALSTAR M091         
1 37741U 11033C   25085.59223638 -.00000084  00000+0  11238-3 0  9998
2 37741  51.9985 164.5888 0000665  94.1374  46.1767 12.62266429632750
GLOBALSTAR M085         
1 37742U 11033D   25085.58492387 -.00000071  00000+0  18010-3 0  9998
2 37742  51.9845 115.7214 0000477  87.2568  79.9321 12.62266837633266
GLOBALSTAR M081         
1 37743U 11033E   25085.52908500 -.00000063  00000+0  23031-3 0  9992
2 37743  51.9937 118.6273 0000590 109.2929  44.1990 12.62262193633401
GLOBALSTAR M089         
1 37744U 11033F   25085.41284610 -.00000082  00000+0  12266-3 0  9999
2 37744  51.9924  73.2225 0000298 130.9949  34.1619 12.62267825634235
GLOBALSTAR M084         
1 38040U 11080A   25085.63566453 -.00000064  00000+0  21958-3 0  9991
2 38040  52.0012 299.7928 0000662 111.5892 286.3716 12.62264202612249
GLOBALSTAR M080         
1 38041U 11080B   25085.52870931 -.00000052  00000+0  28825-3 0  9996
2 38041  52.0066 301.6976 0000848 122.6623 268.3381 12.62270652612352
GLOBALSTAR M082         
1 38042U 11080C   25085.54418823 -.00000083  00000+0  11413-3 0  9996
2 38042  52.0063 257.0840 0000912  71.4932 330.9209 12.62264679613066
GLOBALSTAR M092         
1 38043U 11080D   25085.46674362 -.00000072  00000+0  17688-3 0  9998
2 38043  52.0111 347.6912 0000606  79.8159  91.1549 12.62261498611506
GLOBALSTAR M090         
1 38044U 11080E   25085.48420219 -.00000086  00000+0  98628-4 0  9990
2 38044  51.9873 251.1816 0000883  89.7668 279.3171 12.62268685613175
GLOBALSTAR M086         
1 38045U 11080F   25085.51744696 -.00000084  00000+0  11124-3 0  9996
2 38045  51.9884 251.6248 0001631 120.4577 280.1803 12.62268629613121
GLOBALSTAR M097         
1 39072U 13005A   25085.61430058 -.00000089  00000+0  80015-4 0  9992
2 39072  52.0032 165.7932 0000750 108.6308 251.4640 12.62271179560388
GLOBALSTAR M093         
1 39073U 13005B   25085.58752791 -.00000086  00000+0  98355-4 0  9993
2 39073  51.9799 159.3074 0000694 109.1886 250.9056 12.62263128560332
GLOBALSTAR M094         
1 39074U 13005C   25085.35021081 -.00000088  00000+0  88039-4 0  9990
2 39074  51.9952  74.3276 0000667  85.6255 274.4687 12.62269358561919
GLOBALSTAR M096         
1 39075U 13005D   25085.52184262 -.00000075  00000+0  16151-3 0  9992
2 39075  52.0053 122.2582 0000615  91.6075 268.4863 12.62269794560852
GLOBALSTAR M078         
1 39076U 13005E   25085.57407155 -.00000176  00000+0 -40333-3 0  9999
2 39076  51.9871 206.7177 0000904  40.5195 319.5738 12.62259830559480
GLOBALSTAR M095         
1 39077U 13005F   25085.60083046 -.00000109  00000+0 -26771-4 0  9990
2 39077  51.9791 203.8761 0000954  77.3661 282.7312 12.62268106559340
GLOBALSTAR M087         
1 52888U 22064A   25085.39393716 -.00000076  00000+0  15569-3 0  9998
2 52888  51.9818 345.9118 0000802  70.7875 289.3079 12.62269845134584
